[{"OBJECT_NAME":"ONEWEB-0034","OBJECT_ID":"2020-020AG","EPOCH":"2026-03-03T10:54:27.437472","MEAN_MOTION":13.11416884,"ECCENTRICITY":0.00018521,"INCLINATION":87.8859,"RA_OF_ASC_NODE":42.0799,"ARG_OF_PERICENTER":83.8547,"MEAN_ANOMALY":276.2792,"EPHEMERIS_TYPE":0,"CLASSIFICATION_TYPE":"U","NORAD_CAT_ID":45454,"ELEMENT_SET_NO":999,"REV_AT_EPOCH":28873,"BSTAR":0.00079319091,"MEAN_MOTION_DOT":2.94e-6,"MEAN_MOTION_DDOT":0},{"OBJECT_NAME":"ONEWEB-0060","OBJECT_ID":"2020-020AH","EPOCH":"2026-03-03T12:02:47.635872","MEAN_MOTION":13.11416675,"ECCENTRICITY":0.0001114,"INCLINATION":87.8846,"RA_OF_ASC_NODE":42.0818,"ARG_OF_PERICENTER":114.6017,"MEAN_ANOMALY":245.5227,"EPHEMERIS_TYPE":0,"CLASSIFICATION_TYPE":"U","NORAD_CAT_ID":45455,"ELEMENT_SET_NO":999,"REV_AT_EPOCH":28869,"BSTAR":-0.0014395618,"MEAN_MOTION_DOT":-4.97e-6,"MEAN_MOTION_DDOT":0},{"OBJECT_NAME":"ONEWEB-0086","OBJECT_ID":"2020-020AJ","EPOCH":"2026-03-03T20:41:37.918752","MEAN_MOTION":13.11413952,"ECCENTRICITY":0.0001859,"INCLINATION":87.8859,"RA_OF_ASC_NODE":41.997,"ARG_OF_PERICENTER":109.9118,"MEAN_ANOMALY":250.221,"EPHEMERIS_TYPE":0,"CLASSIFICATION_TYPE":"U","NORAD_CAT_ID":45456,"ELEMENT_SET_NO":999,"REV_AT_EPOCH":28880,"BSTAR":0.00077361838,"MEAN_MOTION_DOT":2.87e-6,"MEAN_MOTION_DDOT":0},{"OBJECT_NAME":"ONEWEB-0088","OBJECT_ID":"2020-020AK","EPOCH":"2026-03-03T11:00:33.897024","MEAN_MOTION":13.11416786,"ECCENTRICITY":0.00017221,"INCLINATION":87.8867,"RA_OF_ASC_NODE":42.0416,"ARG_OF_PERICENTER":75.2263,"MEAN_ANOMALY":284.9056,"EPHEMERIS_TYPE":0,"CLASSIFICATION_TYPE":"U","NORAD_CAT_ID":45457,"ELEMENT_SET_NO":999,"REV_AT_EPOCH":28868,"BSTAR":0.0013457153,"MEAN_MOTION_DOT":4.9e-6,"MEAN_MOTION_DDOT":0},{"OBJECT_NAME":"ONEWEB-0102","OBJECT_ID":"2020-100A","EPOCH":"2026-03-03T20:24:38.490336","MEAN_MOTION":13.12441873,"ECCENTRICITY":0.00018089,"INCLINATION":87.899,"RA_OF_ASC_NODE":11.5878,"ARG_OF_PERICENTER":88.0962,"MEAN_ANOMALY":272.0374,"EPHEMERIS_TYPE":0,"CLASSIFICATION_TYPE":"U","NORAD_CAT_ID":47258,"ELEMENT_SET_NO":999,"REV_AT_EPOCH":25091,"BSTAR":0.0010739511,"MEAN_MOTION_DOT":3.99e-6,"MEAN_MOTION_DDOT":0},{"OBJECT_NAME":"ONEWEB-0109","OBJECT_ID":"2020-100B","EPOCH":"2026-03-03T18:47:03.018048","MEAN_MOTION":13.12440277,"ECCENTRICITY":0.0001943,"INCLINATION":87.8999,"RA_OF_ASC_NODE":11.575,"ARG_OF_PERICENTER":82.5017,"MEAN_ANOMALY":277.6333,"EPHEMERIS_TYPE":0,"CLASSIFICATION_TYPE":"U","NORAD_CAT_ID":47259,"ELEMENT_SET_NO":999,"REV_AT_EPOCH":25073,"BSTAR":0.00025838479,"MEAN_MOTION_DOT":1.06e-6,"MEAN_MOTION_DDOT":0},{"OBJECT_NAME":"ONEWEB-0110","OBJECT_ID":"2020-100C","EPOCH":"2026-03-03T19:26:04.460640","MEAN_MOTION":13.12444294,"ECCENTRICITY":0.00017097,"INCLINATION":87.8996,"RA_OF_ASC_NODE":11.5542,"ARG_OF_PERICENTER":88.8554,"MEAN_ANOMALY":271.2771,"EPHEMERIS_TYPE":0,"CLASSIFICATION_TYPE":"U","NORAD_CAT_ID":47260,"ELEMENT_SET_NO":999,"REV_AT_EPOCH":25090,"BSTAR":-0.00093295417,"MEAN_MOTION_DOT":-3.23e-6,"MEAN_MOTION_DDOT":0},{"OBJECT_NAME":"ONEWEB-0111","OBJECT_ID":"2020-100D","EPOCH":"2026-03-03T20:10:00.265440","MEAN_MOTION":13.12442333,"ECCENTRICITY":0.00016956,"INCLINATION":87.8998,"RA_OF_ASC_NODE":11.5666,"ARG_OF_PERICENTER":82.2998,"MEAN_ANOMALY":277.8323,"EPHEMERIS_TYPE":0,"CLASSIFICATION_TYPE":"U","NORAD_CAT_ID":47261,"ELEMENT_SET_NO":999,"REV_AT_EPOCH":25074,"BSTAR":0.0011769036,"MEAN_MOTION_DOT":4.36e-6,"MEAN_MOTION_DDOT":0},{"OBJECT_NAME":"ONEWEB-0114","OBJECT_ID":"2020-100E","EPOCH":"2026-03-03T19:04:07.217472","MEAN_MOTION":13.12441214,"ECCENTRICITY":0.00020756,"INCLINATION":87.9002,"RA_OF_ASC_NODE":11.5708,"ARG_OF_PERICENTER":77.9379,"MEAN_ANOMALY":282.1982,"EPHEMERIS_TYPE":0,"CLASSIFICATION_TYPE":"U","NORAD_CAT_ID":47262,"ELEMENT_SET_NO":999,"REV_AT_EPOCH":25069,"BSTAR":-0.00071245651,"MEAN_MOTION_DOT":-2.44e-6,"MEAN_MOTION_DDOT":0},{"OBJECT_NAME":"ONEWEB-0117","OBJECT_ID":"2020-100F","EPOCH":"2026-03-03T20:41:42.241344","MEAN_MOTION":13.12440493,"ECCENTRICITY":0.000182,"INCLINATION":87.8996,"RA_OF_ASC_NODE":11.5522,"ARG_OF_PERICENTER":81.6601,"MEAN_ANOMALY":278.4734,"EPHEMERIS_TYPE":0,"CLASSIFICATION_TYPE":"U","NORAD_CAT_ID":47263,"ELEMENT_SET_NO":999,"REV_AT_EPOCH":25071,"BSTAR":-0.00020179192,"MEAN_MOTION_DOT":-6.0e-7,"MEAN_MOTION_DDOT":0},{"OBJECT_NAME":"ONEWEB-0118","OBJECT_ID":"2020-100G","EPOCH":"2026-03-03T19:40:42.962016","MEAN_MOTION":13.12442542,"ECCENTRICITY":0.00020309,"INCLINATION":87.8996,"RA_OF_ASC_NODE":11.5626,"ARG_OF_PERICENTER":71.266,"MEAN_ANOMALY":288.8689,"EPHEMERIS_TYPE":0,"CLASSIFICATION_TYPE":"U","NORAD_CAT_ID":47264,"ELEMENT_SET_NO":999,"REV_AT_EPOCH":25090,"BSTAR":-0.00041053119,"MEAN_MOTION_DOT":-1.35e-6,"MEAN_MOTION_DDOT":0},{"OBJECT_NAME":"ONEWEB-0119","OBJECT_ID":"2020-100H","EPOCH":"2026-03-03T20:17:19.522176","MEAN_MOTION":13.12441965,"ECCENTRICITY":0.00018555,"INCLINATION":87.899,"RA_OF_ASC_NODE":11.5842,"ARG_OF_PERICENTER":80.6348,"MEAN_ANOMALY":279.4991,"EPHEMERIS_TYPE":0,"CLASSIFICATION_TYPE":"U","NORAD_CAT_ID":47265,"ELEMENT_SET_NO":999,"REV_AT_EPOCH":25088,"BSTAR":0.0012465942,"MEAN_MOTION_DOT":4.61e-6,"MEAN_MOTION_DDOT":0},{"OBJECT_NAME":"ONEWEB-0120","OBJECT_ID":"2020-100J","EPOCH":"2026-03-03T19:01:52.501728","MEAN_MOTION":13.12440826,"ECCENTRICITY":0.00019417,"INCLINATION":87.8987,"RA_OF_ASC_NODE":11.595,"ARG_OF_PERICENTER":79.7889,"MEAN_ANOMALY":280.3458,"EPHEMERIS_TYPE":0,"CLASSIFICATION_TYPE":"U","NORAD_CAT_ID":47266,"ELEMENT_SET_NO":999,"REV_AT_EPOCH":25090,"BSTAR":-0.00064700219,"MEAN_MOTION_DOT":-2.2e-6,"MEAN_MOTION_DDOT":0},{"OBJECT_NAME":"ONEWEB-0121","OBJECT_ID":"2020-100K","EPOCH":"2026-03-03T09:35:41.884512","MEAN_MOTION":13.12440866,"ECCENTRICITY":0.00016733,"INCLINATION":87.8995,"RA_OF_ASC_NODE":11.649,"ARG_OF_PERICENTER":85.4933,"MEAN_ANOMALY":274.6386,"EPHEMERIS_TYPE":0,"CLASSIFICATION_TYPE":"U","NORAD_CAT_ID":47267,"ELEMENT_SET_NO":999,"REV_AT_EPOCH":25076,"BSTAR":0.00033118471,"MEAN_MOTION_DOT":1.32e-6,"MEAN_MOTION_DDOT":0},{"OBJECT_NAME":"ONEWEB-0122","OBJECT_ID":"2020-100L","EPOCH":"2026-03-03T20:25:51.909600","MEAN_MOTION":13.12444506,"ECCENTRICITY":0.00019129,"INCLINATION":87.9002,"RA_OF_ASC_NODE":11.5615,"ARG_OF_PERICENTER":84.3363,"MEAN_ANOMALY":275.7984,"EPHEMERIS_TYPE":0,"CLASSIFICATION_TYPE":"U","NORAD_CAT_ID":47268,"ELEMENT_SET_NO":999,"REV_AT_EPOCH":25073,"BSTAR":0.00097367539,"MEAN_MOTION_DOT":3.63e-6,"MEAN_MOTION_DDOT":0},{"OBJECT_NAME":"ONEWEB-0123","OBJECT_ID":"2020-100M","EPOCH":"2026-03-03T20:19:45.626304","MEAN_MOTION":13.12441761,"ECCENTRICITY":0.0001833,"INCLINATION":87.899,"RA_OF_ASC_NODE":11.5826,"ARG_OF_PERICENTER":77.2878,"MEAN_ANOMALY":282.8455,"EPHEMERIS_TYPE":0,"CLASSIFICATION_TYPE":"U","NORAD_CAT_ID":47269,"ELEMENT_SET_NO":999,"REV_AT_EPOCH":25087,"BSTAR":0.0011066159,"MEAN_MOTION_DOT":4.11e-6,"MEAN_MOTION_DDOT":0},{"OBJECT_NAME":"ONEWEB-0124","OBJECT_ID":"2020-100N","EPOCH":"2026-03-03T20:05:07.104192","MEAN_MOTION":13.12442417,"ECCENTRICITY":0.00016862,"INCLINATION":87.8986,"RA_OF_ASC_NODE":11.5892,"ARG_OF_PERICENTER":79.5602,"MEAN_ANOMALY":280.5717,"EPHEMERIS_TYPE":0,"CLASSIFICATION_TYPE":"U","NORAD_CAT_ID":47270,"ELEMENT_SET_NO":999,"REV_AT_EPOCH":25075,"BSTAR":0.0012161564,"MEAN_MOTION_DOT":4.5e-6,"MEAN_MOTION_DDOT":0}]
