ONEWEB-0034             
1 45454U 20020AG  26062.45448423  .00000294  00000+0  79319-3 0  9992
2 45454  87.8859  42.0799 0001852  83.8547 276.2792 13.11416884288731
ONEWEB-0060             
1 45455U 20020AH  26062.50194023 -.00000497  00000+0 -14396-2 0  9993
2 45455  87.8846  42.0818 0001114 114.6017 245.5227 13.11416675288691
ONEWEB-0086             
1 45456U 20020AJ  26062.86224443  .00000287  00000+0  77362-3 0  9991
2 45456  87.8859  41.9970 0001859 109.9118 250.2210 13.11413952288801
ONEWEB-0088             
1 45457U 20020AK  26062.45872566  .00000490  00000+0  13457-2 0  9992
2 45457  87.8867  42.0416 0001722  75.2263 284.9056 13.11416786288689
ONEWEB-0102             
1 47258U 20100A   26062.85044549  .00000399  00000+0  10740-2 0  9998
2 47258  87.8990  11.5878 0001808  88.0962 272.0374 13.12441873250915
ONEWEB-0109             
1 47259U 20100B   26062.78267382  .00000106  00000+0  25838-3 0  9994
2 47259  87.8999  11.5750 0001943  82.5017 277.6333 13.12440277250737
ONEWEB-0110             
1 47260U 20100C   26062.80977385 -.00000323  00000+0 -93295-3 0  9995
2 47260  87.8996  11.5542 0001709  88.8554 271.2771 13.12444294250908
ONEWEB-0111             
1 47261U 20100D   26062.84028085  .00000436  00000+0  11769-2 0  9992
2 47261  87.8998  11.5666 0001695  82.2998 277.8323 13.12442333250741
ONEWEB-0114             
1 47262U 20100E   26062.79452798 -.00000244  00000+0 -71246-3 0  9995
2 47262  87.9002  11.5708 0002075  77.9379 282.1982 13.12441214250694
ONEWEB-0117             
1 47263U 20100F   26062.86229446 -.00000060  00000+0 -20179-3 0  9991
2 47263  87.8996  11.5522 0001820  81.6601 278.4734 13.12440493250711
ONEWEB-0118             
1 47264U 20100G   26062.81994169 -.00000135  00000+0 -41053-3 0  9995
2 47264  87.8996  11.5626 0002030  71.2660 288.8689 13.12442542250903
ONEWEB-0119             
1 47265U 20100H   26062.84536484  .00000461  00000+0  12466-2 0  9996
2 47265  87.8990  11.5842 0001855  80.6348 279.4991 13.12441965250886
ONEWEB-0120             
1 47266U 20100J   26062.79296877 -.00000220  00000+0 -64700-3 0  9994
2 47266  87.8987  11.5950 0001941  79.7889 280.3458 13.12440826250905
ONEWEB-0121             
1 47267U 20100K   26062.39979033  .00000132  00000+0  33118-3 0  9992
2 47267  87.8995  11.6490 0001673  85.4933 274.6386 13.12440866250765
ONEWEB-0122             
1 47268U 20100L   26062.85129525  .00000363  00000+0  97368-3 0  9990
2 47268  87.9002  11.5615 0001912  84.3363 275.7984 13.12444506250733
ONEWEB-0123             
1 47269U 20100M   26062.84705586  .00000411  00000+0  11066-2 0  9991
2 47269  87.8990  11.5826 0001833  77.2878 282.8455 13.12441761250874
ONEWEB-0124             
1 47270U 20100N   26062.83688778  .00000450  00000+0  12162-2 0  9996
2 47270  87.8986  11.5892 0001686  79.5602 280.5717 13.12442417250752
